SHIYAN-1 (SY-1)         
1 28220U 04012A   26068.73650539  .00016393  00000+0  54854-3 0  9991
2 28220  97.8764 140.5238 0005873  23.6952 336.4557 15.31043463195862
STARLINK-31801          
1 59647U 24082S   26068.21146506  .00006977  00000+0  26307-3 0  9993
2 59647  43.0017 142.9476 0000763 260.5473  99.5293 15.27548792104781
